{
  "links" : {
    "next" : "https://api.nasa.gov/neo/rest/v1/neo/browse?page=17&size=20&api_key=jqAGvNAwUIBu4fl9FSOjdm3V4F7hIglRzI6pdX9d",
    "prev" : "https://api.nasa.gov/neo/rest/v1/neo/browse?page=15&size=20&api_key=jqAGvNAwUIBu4fl9FSOjdm3V4F7hIglRzI6pdX9d",
    "self" : "https://api.nasa.gov/neo/rest/v1/neo/browse?page=16&size=20&api_key=jqAGvNAwUIBu4fl9FSOjdm3V4F7hIglRzI6pdX9d"
  },
  "page" : {
    "size" : 20,
    "total_elements" : 20750,
    "total_pages" : 1038,
    "number" : 16
  },
  "near_earth_objects" : [ {
    "links" : {
      "self" : "https://api.nasa.gov/neo/rest/v1/neo/3184476?api_key=jqAGvNAwUIBu4fl9FSOjdm3V4F7hIglRzI6pdX9d"
    },
    "neo_reference_id" : "3184476",
    "name" : "(2004 ME6)",
    "designation" : "2004 ME6",
    "nasa_jpl_url" : "http://ssd.jpl.nasa.gov/sbdb.cgi?sstr=3184476",
    "absolute_magnitude_h" : 22.6,
    "estimated_diameter" : {
      "kilometers" : {
        "estimated_diameter_min" : 0.0802703167,
        "estimated_diameter_max" : 0.1794898848
      },
      "meters" : {
        "estimated_diameter_min" : 80.2703167283,
        "estimated_diameter_max" : 179.4898847799
      },
      "miles" : {
        "estimated_diameter_min" : 0.049877647,
        "estimated_diameter_max" : 0.1115298092
      },
      "feet" : {
        "estimated_diameter_min" : 263.3540659348,
        "estimated_diameter_max" : 588.8775935812
      }
    },
    "is_potentially_hazardous_asteroid" : false,
    "close_approach_data" : [ ],
    "orbital_data" : {
      "orbit_id" : "7",
      "orbit_determination_date" : "2017-04-06 09:12:34",
      "first_observation_date" : "2004-06-25",
      "last_observation_date" : "2004-06-26",
      "data_arc_in_days" : 1,
      "observations_used" : 8,
      "orbit_uncertainty" : "9",
      "minimum_orbit_intersection" : ".0294783",
      "jupiter_tisserand_invariant" : "3.263",
      "epoch_osculation" : "2453182.5",
      "eccentricity" : ".5799992754263552",
      "semi_major_axis" : "2.394256962112729",
      "inclination" : "9.510934013343959",
      "ascending_node_longitude" : "112.1934737428007",
      "orbital_period" : "1353.17686863432",
      "perihelion_distance" : "1.00558965890284",
      "perihelion_argument" : "210.3957629435576",
      "aphelion_distance" : "3.782924265322619",
      "perihelion_time" : "2453233.734639672384",
      "mean_anomaly" : "346.3695051921238",
      "mean_motion" : ".2660406103182403",
      "equinox" : "J2000",
      "orbit_class" : {
        "orbit_class_type" : "APO",
        "orbit_class_range" : "a (semi-major axis) > 1.0 AU; q (perihelion) < 1.017 AU",
        "orbit_class_description" : "Near-Earth asteroid orbits which cross the Earth’s orbit similar to that of 1862 Apollo"
      }
    },
    "is_sentry_object" : true,
    "sentry_data" : "https://api.nasa.gov/neo/rest/v1/neo/sentry/3184476?api_key=jqAGvNAwUIBu4fl9FSOjdm3V4F7hIglRzI6pdX9d"
  }, {
    "links" : {
      "self" : "https://api.nasa.gov/neo/rest/v1/neo/3248660?api_key=jqAGvNAwUIBu4fl9FSOjdm3V4F7hIglRzI6pdX9d"
    },
    "neo_reference_id" : "3248660",
    "name" : "(2004 NF3)",
    "designation" : "2004 NF3",
    "nasa_jpl_url" : "http://ssd.jpl.nasa.gov/sbdb.cgi?sstr=3248660",
    "absolute_magnitude_h" : 24.5,
    "estimated_diameter" : {
      "kilometers" : {
        "estimated_diameter_min" : 0.0334622374,
        "estimated_diameter_max" : 0.0748238376
      },
      "meters" : {
        "estimated_diameter_min" : 33.4622374455,
        "estimated_diameter_max" : 74.8238376074
      },
      "miles" : {
        "estimated_diameter_min" : 0.0207924639,
        "estimated_diameter_max" : 0.0464933628
      },
      "feet" : {
        "estimated_diameter_min" : 109.7842471007,
        "estimated_diameter_max" : 245.4850393757
      }
    },
    "is_potentially_hazardous_asteroid" : false,
    "close_approach_data" : [ {
      "close_approach_date" : "2004-07-09",
      "epoch_date_close_approach" : 1089356400000,
      "relative_velocity" : {
        "kilometers_per_second" : "5.7714456325",
        "kilometers_per_hour" : "20777.2042771606",
        "miles_per_hour" : "12910.146735439"
      },
      "miss_distance" : {
        "astronomical" : "0.0597703086",
        "lunar" : "23.2506504059",
        "kilometers" : "8941511",
        "miles" : "5555997.5"
      },
      "orbiting_body" : "Earth"
    } ],
    "orbital_data" : {
      "orbit_id" : "11",
      "orbit_determination_date" : "2017-04-06 09:12:33",
      "first_observation_date" : "2004-07-11",
      "last_observation_date" : "2004-07-22",
      "data_arc_in_days" : 11,
      "observations_used" : 38,
      "orbit_uncertainty" : "8",
      "minimum_orbit_intersection" : ".0578624",
      "jupiter_tisserand_invariant" : "3.624",
      "epoch_osculation" : "2453203.5",
      "eccentricity" : ".4801908273899622",
      "semi_major_axis" : "2.066372722337507",
      "inclination" : ".7863792684638807",
      "ascending_node_longitude" : "270.2076758259245",
      "orbital_period" : "1084.954229455163",
      "perihelion_distance" : "1.074119495102211",
      "perihelion_argument" : "22.51675945381828",
      "aphelion_distance" : "3.058625949572804",
      "perihelion_time" : "2453200.241108750867",
      "mean_anomaly" : "1.081336721713166",
      "mean_motion" : ".3318112324247846",
      "equinox" : "J2000",
      "orbit_class" : {
        "orbit_class_type" : "AMO",
        "orbit_class_range" : "1.017 AU < q (perihelion) < 1.3 AU",
        "orbit_class_description" : "Near-Earth asteroid orbits similar to that of 1221 Amor"
      }
    },
    "is_sentry_object" : false
  }, {
    "links" : {
      "self" : "https://api.nasa.gov/neo/rest/v1/neo/3248669?api_key=jqAGvNAwUIBu4fl9FSOjdm3V4F7hIglRzI6pdX9d"
    },
    "neo_reference_id" : "3248669",
    "name" : "(2004 NU7)",
    "designation" : "2004 NU7",
    "nasa_jpl_url" : "http://ssd.jpl.nasa.gov/sbdb.cgi?sstr=3248669",
    "absolute_magnitude_h" : 24.4,
    "estimated_diameter" : {
      "kilometers" : {
        "estimated_diameter_min" : 0.0350392641,
        "estimated_diameter_max" : 0.0783501764
      },
      "meters" : {
        "estimated_diameter_min" : 35.0392641108,
        "estimated_diameter_max" : 78.3501764334
      },
      "miles" : {
        "estimated_diameter_min" : 0.0217723826,
        "estimated_diameter_max" : 0.0486845275
      },
      "feet" : {
        "estimated_diameter_min" : 114.9582192654,
        "estimated_diameter_max" : 257.0543928497
      }
    },
    "is_potentially_hazardous_asteroid" : false,
    "close_approach_data" : [ {
      "close_approach_date" : "2004-07-04",
      "epoch_date_close_approach" : 1088924400000,
      "relative_velocity" : {
        "kilometers_per_second" : "7.4964234079",
        "kilometers_per_hour" : "26987.1242685244",
        "miles_per_hour" : "16768.7495211839"
      },
      "miss_distance" : {
        "astronomical" : "0.0188893276",
        "lunar" : "7.3479485512",
        "kilometers" : "2825803.25",
        "miles" : "1755872.75"
      },
      "orbiting_body" : "Earth"
    } ],
    "orbital_data" : {
      "orbit_id" : "10",
      "orbit_determination_date" : "2017-04-06 09:12:33",
      "first_observation_date" : "2004-07-14",
      "last_observation_date" : "2004-07-21",
      "data_arc_in_days" : 7,
      "observations_used" : 22,
      "orbit_uncertainty" : "8",
      "minimum_orbit_intersection" : ".0137829",
      "jupiter_tisserand_invariant" : "3.431",
      "epoch_osculation" : "2453203.5",
      "eccentricity" : ".5409876445491497",
      "semi_major_axis" : "2.234598742722549",
      "inclination" : ".8353385233272681",
      "ascending_node_longitude" : "135.9229109742663",
      "orbital_period" : "1220.106531449893",
      "perihelion_distance" : "1.025708432384586",
      "perihelion_argument" : "135.177634531665",
      "aphelion_distance" : "3.443489053060513",
      "perihelion_time" : "2453181.303148098780",
      "mean_anomaly" : "6.549318832793549",
      "mean_motion" : ".2950562026515833",
      "equinox" : "J2000",
      "orbit_class" : {
        "orbit_class_type" : "AMO",
        "orbit_class_range" : "1.017 AU < q (perihelion) < 1.3 AU",
        "orbit_class_description" : "Near-Earth asteroid orbits similar to that of 1221 Amor"
      }
    },
    "is_sentry_object" : false
  } ]
}